ONEWEB-0650             
1 55813U 23029T   24067.14003798  .00000121  00000+0  27110-3 0  9996
2 55813  87.9133 110.6014 0001677  87.8653 272.2672 13.19727796 49841
ONEWEB-0652             
1 55814U 23029U   24067.12596313 -.00000083  00000+0 -25813-3 0  9992
2 55814  87.8899  95.3148 0002078  97.0380 263.0986 13.14502167 50748
ONEWEB-0653             
1 55815U 23029V   24067.11010934 -.00000287  00000+0 -80831-3 0  9999
2 55815  87.8902  95.2953 0002322  92.2571 267.8824 13.14501820 50779
ONEWEB-0654             
1 55816U 23029W   24066.80087718 -.00000397  00000+0 -11046-2 0  9992
2 55816  87.8900  95.3699 0002433 102.6859 257.4543 13.14502611 50754
ONEWEB-0656             
1 55817U 23029X   24066.78848097  .00000056  00000+0  10581-3 0  9999
2 55817  87.9127  80.0670 0002000 112.4755 247.6591 13.20772338 51950
ONEWEB-0657             
1 55818U 23029Y   24067.13530296  .00000027  00000+0  34977-4 0  9993
2 55818  87.9130 110.6074 0001703 125.4559 234.6732 13.19726583 49845
ONEWEB-0658             
1 55819U 23029Z   24067.13057918  .00000028  00000+0  37709-4 0  9996
2 55819  87.9131 110.5448 0001589  78.8655 281.2656 13.19725871 49854
ONEWEB-0660             
1 55820U 23029AA  24066.77868101 -.00000158  00000+0 -46042-3 0  9996
2 55820  87.8902  95.3501 0002230  79.3002 280.8379 13.14502323 50755
